KUIPER-00125            
1 65954U 25228H   26001.66667824  .00077784  00000+0  23360-2 0  9990
2 65954  51.8794 284.1823 0005789 108.2284 220.0126 15.33723041  5532
KUIPER-00126            
1 65955U 25228J   26001.19927480  .00006570  00000+0  88997-3 0  9999
2 65955  51.9004 299.0534 0000586  76.3983 283.7045 14.79932015 13237
KUIPER-00127            
1 65956U 25228K   25365.07826342  .00020098  00000+0  17026-2 0  9999
2 65956  51.8953 300.3017 0005939 122.3351 237.8195 14.97947708 13129
KUIPER-00128            
1 65957U 25228L   26001.66667824 -.01014273  00000+0 -11491+0 0  9999
2 65957  51.8974 289.8495 0002947 125.1561 169.6648 14.89094501  4922
KUIPER-00129            
1 65958U 25228M   26001.66667824 -.01907435  00000+0 -13449+0 0  9996
2 65958  51.8878 286.3967 0001143  27.7708 314.6048 15.08265296  5907
KUIPER-00130            
1 65959U 25228N   26001.66667824 -.01995539  00000+0 -17747+0 0  9994
2 65959  51.8916 287.9138 0006467 113.1193 204.9447 14.99148112  5348
KUIPER-00134            
1 65960U 25228P   26001.17697013  .00064110  00000+0  17790-2 0  9995
2 65960  51.8785 286.8210 0007255  84.7753 275.4061 15.36286974 13406
KUIPER-00135            
1 65961U 25228Q   26001.66667824  .00046055  00000+0  38018-2 0  9991
2 65961  51.8950 288.1795 0005547 112.1388 329.9208 14.98526599  2926
