<?xml version="1.0" encoding="UTF-8"?>
<ndm xmlns:xsi="http://www.w3.org/2001/XMLSchema-instance" xsi:noNamespaceSchemaLocation="https://sanaregistry.org/r/ndmxml_unqualified/ndmxml-2.0.0-master-2.0.xsd">
<omm id="CCSDS_OMM_VERS" version="2.0">
<header><CREATION_DATE/><ORIGINATOR/></header><body><segment><metadata><OBJECT_NAME>KUIPER-00125</OBJECT_NAME><OBJECT_ID>2025-228H</OBJECT_ID><CENTER_NAME>EARTH</CENTER_NAME><REF_FRAME>TEME</REF_FRAME><TIME_SYSTEM>UTC</TIME_SYSTEM><MEAN_ELEMENT_THEORY>SGP4</MEAN_ELEMENT_THEORY></metadata><data><meanElements><EPOCH>2026-01-01T16:00:00.999936</EPOCH><MEAN_MOTION>15.33723041</MEAN_MOTION><ECCENTRICITY>.00057891</ECCENTRICITY><INCLINATION>51.8794</INCLINATION><RA_OF_ASC_NODE>284.1823</RA_OF_ASC_NODE><ARG_OF_PERICENTER>108.2284</ARG_OF_PERICENTER><MEAN_ANOMALY>220.0126</MEAN_ANOMALY></meanElements><tleParameters><EPHEMERIS_TYPE>0</EPHEMERIS_TYPE><CLASSIFICATION_TYPE>U</CLASSIFICATION_TYPE><NORAD_CAT_ID>65954</NORAD_CAT_ID><ELEMENT_SET_NO>999</ELEMENT_SET_NO><REV_AT_EPOCH>553</REV_AT_EPOCH><BSTAR>.23360078E-2</BSTAR><MEAN_MOTION_DOT>.77784E-3</MEAN_MOTION_DOT><MEAN_MOTION_DDOT>0</MEAN_MOTION_DDOT></tleParameters></data></segment></body></omm>
<omm id="CCSDS_OMM_VERS" version="2.0">
<header><CREATION_DATE/><ORIGINATOR/></header><body><segment><metadata><OBJECT_NAME>KUIPER-00126</OBJECT_NAME><OBJECT_ID>2025-228J</OBJECT_ID><CENTER_NAME>EARTH</CENTER_NAME><REF_FRAME>TEME</REF_FRAME><TIME_SYSTEM>UTC</TIME_SYSTEM><MEAN_ELEMENT_THEORY>SGP4</MEAN_ELEMENT_THEORY></metadata><data><meanElements><EPOCH>2026-01-01T04:46:57.342720</EPOCH><MEAN_MOTION>14.79932015</MEAN_MOTION><ECCENTRICITY>.00005863</ECCENTRICITY><INCLINATION>51.9004</INCLINATION><RA_OF_ASC_NODE>299.0534</RA_OF_ASC_NODE><ARG_OF_PERICENTER>76.3983</ARG_OF_PERICENTER><MEAN_ANOMALY>283.7045</MEAN_ANOMALY></meanElements><tleParameters><EPHEMERIS_TYPE>0</EPHEMERIS_TYPE><CLASSIFICATION_TYPE>U</CLASSIFICATION_TYPE><NORAD_CAT_ID>65955</NORAD_CAT_ID><ELEMENT_SET_NO>999</ELEMENT_SET_NO><REV_AT_EPOCH>1323</REV_AT_EPOCH><BSTAR>.88997047E-3</BSTAR><MEAN_MOTION_DOT>.657E-4</MEAN_MOTION_DOT><MEAN_MOTION_DDOT>0</MEAN_MOTION_DDOT></tleParameters></data></segment></body></omm>
<omm id="CCSDS_OMM_VERS" version="2.0">
<header><CREATION_DATE/><ORIGINATOR/></header><body><segment><metadata><OBJECT_NAME>KUIPER-00127</OBJECT_NAME><OBJECT_ID>2025-228K</OBJECT_ID><CENTER_NAME>EARTH</CENTER_NAME><REF_FRAME>TEME</REF_FRAME><TIME_SYSTEM>UTC</TIME_SYSTEM><MEAN_ELEMENT_THEORY>SGP4</MEAN_ELEMENT_THEORY></metadata><data><meanElements><EPOCH>2025-12-31T01:52:41.959488</EPOCH><MEAN_MOTION>14.97947708</MEAN_MOTION><ECCENTRICITY>.0005939</ECCENTRICITY><INCLINATION>51.8953</INCLINATION><RA_OF_ASC_NODE>300.3017</RA_OF_ASC_NODE><ARG_OF_PERICENTER>122.3351</ARG_OF_PERICENTER><MEAN_ANOMALY>237.8195</MEAN_ANOMALY></meanElements><tleParameters><EPHEMERIS_TYPE>0</EPHEMERIS_TYPE><CLASSIFICATION_TYPE>U</CLASSIFICATION_TYPE><NORAD_CAT_ID>65956</NORAD_CAT_ID><ELEMENT_SET_NO>999</ELEMENT_SET_NO><REV_AT_EPOCH>1312</REV_AT_EPOCH><BSTAR>.17026182E-2</BSTAR><MEAN_MOTION_DOT>.20098E-3</MEAN_MOTION_DOT><MEAN_MOTION_DDOT>0</MEAN_MOTION_DDOT></tleParameters></data></segment></body></omm>
<omm id="CCSDS_OMM_VERS" version="2.0">
<header><CREATION_DATE/><ORIGINATOR/></header><body><segment><metadata><OBJECT_NAME>KUIPER-00128</OBJECT_NAME><OBJECT_ID>2025-228L</OBJECT_ID><CENTER_NAME>EARTH</CENTER_NAME><REF_FRAME>TEME</REF_FRAME><TIME_SYSTEM>UTC</TIME_SYSTEM><MEAN_ELEMENT_THEORY>SGP4</MEAN_ELEMENT_THEORY></metadata><data><meanElements><EPOCH>2026-01-01T16:00:00.999936</EPOCH><MEAN_MOTION>14.89094501</MEAN_MOTION><ECCENTRICITY>.00029472</ECCENTRICITY><INCLINATION>51.8974</INCLINATION><RA_OF_ASC_NODE>289.8495</RA_OF_ASC_NODE><ARG_OF_PERICENTER>125.1561</ARG_OF_PERICENTER><MEAN_ANOMALY>169.6648</MEAN_ANOMALY></meanElements><tleParameters><EPHEMERIS_TYPE>0</EPHEMERIS_TYPE><CLASSIFICATION_TYPE>U</CLASSIFICATION_TYPE><NORAD_CAT_ID>65957</NORAD_CAT_ID><ELEMENT_SET_NO>999</ELEMENT_SET_NO><REV_AT_EPOCH>492</REV_AT_EPOCH><BSTAR>-.11490807E+0</BSTAR><MEAN_MOTION_DOT>-.1014273E-1</MEAN_MOTION_DOT><MEAN_MOTION_DDOT>0</MEAN_MOTION_DDOT></tleParameters></data></segment></body></omm>
<omm id="CCSDS_OMM_VERS" version="2.0">
<header><CREATION_DATE/><ORIGINATOR/></header><body><segment><metadata><OBJECT_NAME>KUIPER-00129</OBJECT_NAME><OBJECT_ID>2025-228M</OBJECT_ID><CENTER_NAME>EARTH</CENTER_NAME><REF_FRAME>TEME</REF_FRAME><TIME_SYSTEM>UTC</TIME_SYSTEM><MEAN_ELEMENT_THEORY>SGP4</MEAN_ELEMENT_THEORY></metadata><data><meanElements><EPOCH>2026-01-01T16:00:00.999936</EPOCH><MEAN_MOTION>15.08265296</MEAN_MOTION><ECCENTRICITY>.00011432</ECCENTRICITY><INCLINATION>51.8878</INCLINATION><RA_OF_ASC_NODE>286.3967</RA_OF_ASC_NODE><ARG_OF_PERICENTER>27.7708</ARG_OF_PERICENTER><MEAN_ANOMALY>314.6048</MEAN_ANOMALY></meanElements><tleParameters><EPHEMERIS_TYPE>0</EPHEMERIS_TYPE><CLASSIFICATION_TYPE>U</CLASSIFICATION_TYPE><NORAD_CAT_ID>65958</NORAD_CAT_ID><ELEMENT_SET_NO>999</ELEMENT_SET_NO><REV_AT_EPOCH>590</REV_AT_EPOCH><BSTAR>-.13448718E+0</BSTAR><MEAN_MOTION_DOT>-.1907435E-1</MEAN_MOTION_DOT><MEAN_MOTION_DDOT>0</MEAN_MOTION_DDOT></tleParameters></data></segment></body></omm>
<omm id="CCSDS_OMM_VERS" version="2.0">
<header><CREATION_DATE/><ORIGINATOR/></header><body><segment><metadata><OBJECT_NAME>KUIPER-00130</OBJECT_NAME><OBJECT_ID>2025-228N</OBJECT_ID><CENTER_NAME>EARTH</CENTER_NAME><REF_FRAME>TEME</REF_FRAME><TIME_SYSTEM>UTC</TIME_SYSTEM><MEAN_ELEMENT_THEORY>SGP4</MEAN_ELEMENT_THEORY></metadata><data><meanElements><EPOCH>2026-01-01T16:00:00.999936</EPOCH><MEAN_MOTION>14.99148112</MEAN_MOTION><ECCENTRICITY>.0006467</ECCENTRICITY><INCLINATION>51.8916</INCLINATION><RA_OF_ASC_NODE>287.9138</RA_OF_ASC_NODE><ARG_OF_PERICENTER>113.1193</ARG_OF_PERICENTER><MEAN_ANOMALY>204.9447</MEAN_ANOMALY></meanElements><tleParameters><EPHEMERIS_TYPE>0</EPHEMERIS_TYPE><CLASSIFICATION_TYPE>U</CLASSIFICATION_TYPE><NORAD_CAT_ID>65959</NORAD_CAT_ID><ELEMENT_SET_NO>999</ELEMENT_SET_NO><REV_AT_EPOCH>534</REV_AT_EPOCH><BSTAR>-.1774737E+0</BSTAR><MEAN_MOTION_DOT>-.1995539E-1</MEAN_MOTION_DOT><MEAN_MOTION_DDOT>0</MEAN_MOTION_DDOT></tleParameters></data></segment></body></omm>
<omm id="CCSDS_OMM_VERS" version="2.0">
<header><CREATION_DATE/><ORIGINATOR/></header><body><segment><metadata><OBJECT_NAME>KUIPER-00134</OBJECT_NAME><OBJECT_ID>2025-228P</OBJECT_ID><CENTER_NAME>EARTH</CENTER_NAME><REF_FRAME>TEME</REF_FRAME><TIME_SYSTEM>UTC</TIME_SYSTEM><MEAN_ELEMENT_THEORY>SGP4</MEAN_ELEMENT_THEORY></metadata><data><meanElements><EPOCH>2026-01-01T04:14:50.219232</EPOCH><MEAN_MOTION>15.36286974</MEAN_MOTION><ECCENTRICITY>.00072554</ECCENTRICITY><INCLINATION>51.8785</INCLINATION><RA_OF_ASC_NODE>286.8210</RA_OF_ASC_NODE><ARG_OF_PERICENTER>84.7753</ARG_OF_PERICENTER><MEAN_ANOMALY>275.4061</MEAN_ANOMALY></meanElements><tleParameters><EPHEMERIS_TYPE>0</EPHEMERIS_TYPE><CLASSIFICATION_TYPE>U</CLASSIFICATION_TYPE><NORAD_CAT_ID>65960</NORAD_CAT_ID><ELEMENT_SET_NO>999</ELEMENT_SET_NO><REV_AT_EPOCH>1340</REV_AT_EPOCH><BSTAR>.17789803E-2</BSTAR><MEAN_MOTION_DOT>.6411E-3</MEAN_MOTION_DOT><MEAN_MOTION_DDOT>0</MEAN_MOTION_DDOT></tleParameters></data></segment></body></omm>
<omm id="CCSDS_OMM_VERS" version="2.0">
<header><CREATION_DATE/><ORIGINATOR/></header><body><segment><metadata><OBJECT_NAME>KUIPER-00135</OBJECT_NAME><OBJECT_ID>2025-228Q</OBJECT_ID><CENTER_NAME>EARTH</CENTER_NAME><REF_FRAME>TEME</REF_FRAME><TIME_SYSTEM>UTC</TIME_SYSTEM><MEAN_ELEMENT_THEORY>SGP4</MEAN_ELEMENT_THEORY></metadata><data><meanElements><EPOCH>2026-01-01T16:00:00.999936</EPOCH><MEAN_MOTION>14.98526599</MEAN_MOTION><ECCENTRICITY>.00055473</ECCENTRICITY><INCLINATION>51.8950</INCLINATION><RA_OF_ASC_NODE>288.1795</RA_OF_ASC_NODE><ARG_OF_PERICENTER>112.1388</ARG_OF_PERICENTER><MEAN_ANOMALY>329.9208</MEAN_ANOMALY></meanElements><tleParameters><EPHEMERIS_TYPE>0</EPHEMERIS_TYPE><CLASSIFICATION_TYPE>U</CLASSIFICATION_TYPE><NORAD_CAT_ID>65961</NORAD_CAT_ID><ELEMENT_SET_NO>999</ELEMENT_SET_NO><REV_AT_EPOCH>292</REV_AT_EPOCH><BSTAR>.38018204E-2</BSTAR><MEAN_MOTION_DOT>.46055E-3</MEAN_MOTION_DOT><MEAN_MOTION_DDOT>0</MEAN_MOTION_DDOT></tleParameters></data></segment></body></omm>

</ndm>
